{
  "type": "FeatureCollection",
  "generator": "overpass-turbo",
  "copyright": "The data included in this document is from www.openstreetmap.org. The data is made available under ODbL.",
  "timestamp": "2026-06-03T17:51:25Z",
  "features": [
    {
      "type": "Feature",
      "properties": {
        "@id": "way/1211763756",
        "amenity": "parking_space",
        "capacity": "1",
        "maxstay": "30 minutes",
        "opening_hours": "Mo-Fr 08:00-13:00,16:00-20:00; Sa 08:00-13:00",
        "parking_space": "delivery"
      },
      "geometry": {
        "type": "Polygon",
        "coordinates": [
          [
            [
              1.9770176,
              41.4479821
            ],
            [
              1.976957,
              41.4480041
            ],
            [
              1.9769215,
              41.4479874
            ],
            [
              1.9769832,
              41.4479662
            ],
            [
              1.9770176,
              41.4479821
            ]
          ]
        ]
      },
      "id": "way/1211763756"
    },
    {
      "type": "Feature",
      "properties": {
        "@id": "way/1211763757",
        "amenity": "parking_space",
        "capacity": "1",
        "maxstay": "30 minutes",
        "opening_hours": "Mo-Fr 08:00-13:00,16:00-20:00; Sa 08:00-13:00",
        "parking_space": "delivery"
      },
      "geometry": {
        "type": "Polygon",
        "coordinates": [
          [
            [
              1.977052,
              41.4479979
            ],
            [
              1.9769925,
              41.4480208
            ],
            [
              1.976957,
              41.4480041
            ],
            [
              1.9770176,
              41.4479821
            ],
            [
              1.977052,
              41.4479979
            ]
          ]
        ]
      },
      "id": "way/1211763757"
    },
    {
      "type": "Feature",
      "properties": {
        "@id": "way/1211763758",
        "amenity": "parking_space",
        "capacity": "1",
        "maxstay": "30 minutes",
        "opening_hours": "Mo-Fr 08:00-13:00,16:00-20:00; Sa 08:00-13:00",
        "parking_space": "delivery"
      },
      "geometry": {
        "type": "Polygon",
        "coordinates": [
          [
            [
              1.9770864,
              41.4480137
            ],
            [
              1.977028,
              41.4480375
            ],
            [
              1.9769925,
              41.4480208
            ],
            [
              1.977052,
              41.4479979
            ],
            [
              1.9770864,
              41.4480137
            ]
          ]
        ]
      },
      "id": "way/1211763758"
    },
    {
      "type": "Feature",
      "properties": {
        "@id": "way/1424996508",
        "amenity": "parking_space",
        "capacity": "1",
        "maxstay": "30 minutes",
        "opening_hours": "Mo-Fr 08:00-13:00,16:00-20:00; Sa 08:00-13:00",
        "parking_space": "delivery"
      },
      "geometry": {
        "type": "Polygon",
        "coordinates": [
          [
            [
              1.9735284,
              41.4490022
            ],
            [
              1.9734622,
              41.4489802
            ],
            [
              1.973475,
              41.4489588
            ],
            [
              1.9735415,
              41.4489811
            ],
            [
              1.9735284,
              41.4490022
            ]
          ]
        ]
      },
      "id": "way/1424996508"
    },
    {
      "type": "Feature",
      "properties": {
        "@id": "way/1442920882",
        "amenity": "parking_space",
        "capacity": "1",
        "maxstay": "30 minutes",
        "opening_hours": "Mo-Fr 08:00-13:00,16:00-20:00; Sa 08:00-13:00",
        "parking_space": "delivery"
      },
      "geometry": {
        "type": "Polygon",
        "coordinates": [
          [
            [
              1.9695904,
              41.4482631
            ],
            [
              1.9696544,
              41.4482993
            ],
            [
              1.969636,
              41.4483177
            ],
            [
              1.9695719,
              41.4482815
            ],
            [
              1.9695904,
              41.4482631
            ]
          ]
        ]
      },
      "id": "way/1442920882"
    },
    {
      "type": "Feature",
      "properties": {
        "@id": "way/1442920883",
        "amenity": "parking_space",
        "capacity": "1",
        "maxstay": "30 minutes",
        "opening_hours": "Mo-Fr 08:00-13:00,16:00-20:00; Sa 08:00-13:00",
        "parking_space": "delivery"
      },
      "geometry": {
        "type": "Polygon",
        "coordinates": [
          [
            [
              1.9696544,
              41.4482993
            ],
            [
              1.969712,
              41.4483334
            ],
            [
              1.9696926,
              41.4483509
            ],
            [
              1.969636,
              41.4483177
            ],
            [
              1.9696544,
              41.4482993
            ]
          ]
        ]
      },
      "id": "way/1442920883"
    },
    {
      "type": "Feature",
      "properties": {
        "@id": "way/1455853381",
        "amenity": "parking_space",
        "capacity": "2",
        "maxstay": "30 minutes",
        "opening_hours": "Mo-Fr 08:00-13:00,16:00-20:00; Sa 08:00-13:00",
        "parking_space": "delivery"
      },
      "geometry": {
        "type": "Polygon",
        "coordinates": [
          [
            [
              1.9701211,
              41.4482498
            ],
            [
              1.9701473,
              41.448231
            ],
            [
              1.9702229,
              41.4482902
            ],
            [
              1.9701967,
              41.448309
            ],
            [
              1.9701211,
              41.4482498
            ]
          ]
        ]
      },
      "id": "way/1455853381"
    },
    {
      "type": "Feature",
      "properties": {
        "@id": "way/1457007955",
        "amenity": "parking_space",
        "capacity": "2",
        "maxstay": "30 minutes",
        "opening_hours": "Mo-Fr 08:00-13:00,16:00-20:00; Sa 08:00-13:00",
        "parking_space": "delivery"
      },
      "geometry": {
        "type": "Polygon",
        "coordinates": [
          [
            [
              1.9695596,
              41.4479253
            ],
            [
              1.9696274,
              41.4478593
            ],
            [
              1.9696531,
              41.4478741
            ],
            [
              1.9695853,
              41.4479402
            ],
            [
              1.9695596,
              41.4479253
            ]
          ]
        ]
      },
      "id": "way/1457007955"
    },
    {
      "type": "Feature",
      "properties": {
        "@id": "way/1457010192",
        "amenity": "parking_space",
        "capacity": "4",
        "maxstay": "30 minutes",
        "opening_hours": "Mo-Fr 08:00-13:00,16:00-20:00; Sa 08:00-13:00",
        "parking_space": "delivery"
      },
      "geometry": {
        "type": "Polygon",
        "coordinates": [
          [
            [
              1.9708344,
              41.4508592
            ],
            [
              1.9707251,
              41.4509917
            ],
            [
              1.9706974,
              41.4509818
            ],
            [
              1.9708094,
              41.450847
            ],
            [
              1.9708344,
              41.4508592
            ]
          ]
        ]
      },
      "id": "way/1457010192"
    },
    {
      "type": "Feature",
      "properties": {
        "@id": "way/1457017546",
        "amenity": "parking_space",
        "capacity": "7",
        "maxstay": "30 minutes",
        "opening_hours": "Mo-Fr 08:00-13:00,16:00-20:00; Sa 08:00-13:00",
        "parking_space": "delivery"
      },
      "geometry": {
        "type": "Polygon",
        "coordinates": [
          [
            [
              1.9745905,
              41.448239
            ],
            [
              1.9747925,
              41.4484413
            ],
            [
              1.9747552,
              41.4484607
            ],
            [
              1.9745809,
              41.4482814
            ],
            [
              1.9745905,
              41.448239
            ]
          ]
        ]
      },
      "id": "way/1457017546"
    },
    {
      "type": "Feature",
      "properties": {
        "@id": "way/1457022283",
        "amenity": "parking_space",
        "capacity": "2",
        "maxstay": "30 minutes",
        "opening_hours": "Mo-Fr 08:00-13:00,16:00-20:00; Sa 08:00-13:00",
        "parking_space": "delivery"
      },
      "geometry": {
        "type": "Polygon",
        "coordinates": [
          [
            [
              1.9755119,
              41.4488695
            ],
            [
              1.9755375,
              41.4488813
            ],
            [
              1.9754777,
              41.4489533
            ],
            [
              1.9754538,
              41.4489423
            ],
            [
              1.9755119,
              41.4488695
            ]
          ]
        ]
      },
      "id": "way/1457022283"
    },
    {
      "type": "Feature",
      "properties": {
        "@id": "way/1502415950",
        "amenity": "parking_space",
        "capacity": "2",
        "maxstay": "30 minutes",
        "opening_hours": "Mo-Fr 08:00-13:00,16:00-20:00; Sa 08:00-13:00",
        "parking_space": "delivery"
      },
      "geometry": {
        "type": "Polygon",
        "coordinates": [
          [
            [
              1.9779833,
              41.4456097
            ],
            [
              1.9779968,
              41.4456234
            ],
            [
              1.9778742,
              41.4456909
            ],
            [
              1.9778607,
              41.4456772
            ],
            [
              1.9779833,
              41.4456097
            ]
          ]
        ]
      },
      "id": "way/1502415950"
    },
    {
      "type": "Feature",
      "properties": {
        "@id": "way/1502417571",
        "amenity": "parking_space",
        "capacity": "2",
        "maxstay": "30 minutes",
        "opening_hours": "Mo-Fr 08:00-13:00,16:00-20:00; Sa 08:00-13:00",
        "parking_space": "delivery"
      },
      "geometry": {
        "type": "Polygon",
        "coordinates": [
          [
            [
              1.977144,
              41.4466234
            ],
            [
              1.977133,
              41.4466403
            ],
            [
              1.9770021,
              41.4465925
            ],
            [
              1.977013,
              41.4465756
            ],
            [
              1.977144,
              41.4466234
            ]
          ]
        ]
      },
      "id": "way/1502417571"
    },
    {
      "type": "Feature",
      "properties": {
        "@id": "way/1503477078",
        "amenity": "parking_space",
        "capacity": "3",
        "maxstay": "30 minutes",
        "opening_hours": "Mo-Fr 08:00-13:00,16:00-20:00; Sa 08:00-13:00",
        "parking_space": "delivery"
      },
      "geometry": {
        "type": "Polygon",
        "coordinates": [
          [
            [
              1.9691862,
              41.447107
            ],
            [
              1.9691713,
              41.4471197
            ],
            [
              1.969043,
              41.4470349
            ],
            [
              1.9690579,
              41.4470222
            ],
            [
              1.9691862,
              41.447107
            ]
          ]
        ]
      },
      "id": "way/1503477078"
    },
    {
      "type": "Feature",
      "properties": {
        "@id": "way/1503478000",
        "amenity": "parking_space",
        "parking_space": "delivery"
      },
      "geometry": {
        "type": "Polygon",
        "coordinates": [
          [
            [
              1.968719,
              41.447748
            ],
            [
              1.9686498,
              41.4477051
            ],
            [
              1.9686691,
              41.4476875
            ],
            [
              1.9687376,
              41.4477313
            ],
            [
              1.968719,
              41.447748
            ]
          ]
        ]
      },
      "id": "way/1503478000"
    },
    {
      "type": "Feature",
      "properties": {
        "@id": "way/1503478001",
        "amenity": "parking_space",
        "parking_space": "delivery"
      },
      "geometry": {
        "type": "Polygon",
        "coordinates": [
          [
            [
              1.9687881,
              41.447791
            ],
            [
              1.968719,
              41.447748
            ],
            [
              1.9687376,
              41.4477313
            ],
            [
              1.9688062,
              41.447775
            ],
            [
              1.9687881,
              41.447791
            ]
          ]
        ]
      },
      "id": "way/1503478001"
    },
    {
      "type": "Feature",
      "properties": {
        "@id": "way/1503478002",
        "amenity": "parking_space",
        "capacity": "2",
        "maxstay": "30 minutes",
        "opening_hours": "Mo-Fr 08:00-13:00,16:00-20:00; Sa 08:00-13:00",
        "parking_space": "delivery"
      },
      "geometry": {
        "type": "Polygon",
        "coordinates": [
          [
            [
              1.9688062,
              41.447775
            ],
            [
              1.9687881,
              41.447791
            ],
            [
              1.9686498,
              41.4477051
            ],
            [
              1.9686691,
              41.4476875
            ],
            [
              1.9688062,
              41.447775
            ]
          ]
        ]
      },
      "id": "way/1503478002"
    },
    {
      "type": "Feature",
      "properties": {
        "@id": "way/1509766352",
        "amenity": "parking_space",
        "parking_space": "delivery"
      },
      "geometry": {
        "type": "Polygon",
        "coordinates": [
          [
            [
              1.9761039,
              41.4458683
            ],
            [
              1.9760706,
              41.4458249
            ],
            [
              1.9760961,
              41.4458139
            ],
            [
              1.9761294,
              41.4458573
            ],
            [
              1.9761039,
              41.4458683
            ]
          ]
        ]
      },
      "id": "way/1509766352"
    },
    {
      "type": "Feature",
      "properties": {
        "@id": "way/1509766353",
        "amenity": "parking_space",
        "parking_space": "delivery"
      },
      "geometry": {
        "type": "Polygon",
        "coordinates": [
          [
            [
              1.9761371,
              41.4459116
            ],
            [
              1.9761039,
              41.4458683
            ],
            [
              1.9761294,
              41.4458573
            ],
            [
              1.9761626,
              41.4459007
            ],
            [
              1.9761371,
              41.4459116
            ]
          ]
        ]
      },
      "id": "way/1509766353"
    }
  ]
}