{
  "type": "FeatureCollection",
  "generator": "overpass-turbo",
  "copyright": "The data included in this document is from www.openstreetmap.org. The data is made available under ODbL.",
  "timestamp": "2026-06-03T17:57:28Z",
  "features": [
    {
      "type": "Feature",
      "properties": {
        "@id": "node/7671056684",
        "amenity": "recycling",
        "recycling:plastic": "yes",
        "recycling:plastic_bottles": "yes",
        "recycling_type": "container"
      },
      "geometry": {
        "type": "Point",
        "coordinates": [
          1.9754712,
          41.4488421
        ]
      },
      "id": "node/7671056684"
    },
    {
      "type": "Feature",
      "properties": {
        "@id": "node/7671063996",
        "amenity": "recycling",
        "recycling:cans": "yes",
        "recycling:plastic": "yes",
        "recycling:plastic_packaging": "yes",
        "recycling_type": "container"
      },
      "geometry": {
        "type": "Point",
        "coordinates": [
          1.973812,
          41.4489952
        ]
      },
      "id": "node/7671063996"
    },
    {
      "type": "Feature",
      "properties": {
        "@id": "node/7817673085",
        "amenity": "recycling",
        "recycling:plastic": "yes",
        "recycling:plastic_bottles": "yes",
        "recycling_type": "container"
      },
      "geometry": {
        "type": "Point",
        "coordinates": [
          1.9755295,
          41.4505283
        ]
      },
      "id": "node/7817673085"
    },
    {
      "type": "Feature",
      "properties": {
        "@id": "node/7817673122",
        "amenity": "recycling",
        "recycling:cans": "yes",
        "recycling:plastic": "yes",
        "recycling:plastic_bottles": "yes",
        "recycling:plastic_packaging": "yes",
        "recycling_type": "container"
      },
      "geometry": {
        "type": "Point",
        "coordinates": [
          1.9772766,
          41.4479832
        ]
      },
      "id": "node/7817673122"
    },
    {
      "type": "Feature",
      "properties": {
        "@id": "node/9721701097",
        "amenity": "recycling",
        "recycling:cans": "yes",
        "recycling:plastic": "yes",
        "recycling:plastic_bottles": "yes",
        "recycling:plastic_packaging": "yes",
        "recycling_type": "container"
      },
      "geometry": {
        "type": "Point",
        "coordinates": [
          1.9655965,
          41.4515349
        ]
      },
      "id": "node/9721701097"
    },
    {
      "type": "Feature",
      "properties": {
        "@id": "node/9721711523",
        "amenity": "recycling",
        "recycling:cans": "yes",
        "recycling:plastic": "yes",
        "recycling:plastic_bottles": "yes",
        "recycling:plastic_packaging": "yes",
        "recycling_type": "container"
      },
      "geometry": {
        "type": "Point",
        "coordinates": [
          1.9628898,
          41.4523237
        ]
      },
      "id": "node/9721711523"
    },
    {
      "type": "Feature",
      "properties": {
        "@id": "node/9721711524",
        "amenity": "recycling",
        "recycling:cans": "yes",
        "recycling:plastic": "yes",
        "recycling:plastic_bottles": "yes",
        "recycling:plastic_packaging": "yes",
        "recycling_type": "container"
      },
      "geometry": {
        "type": "Point",
        "coordinates": [
          1.9628318,
          41.4514105
        ]
      },
      "id": "node/9721711524"
    },
    {
      "type": "Feature",
      "properties": {
        "@id": "node/9824548397",
        "amenity": "recycling",
        "recycling:cans": "yes",
        "recycling:plastic": "yes",
        "recycling:plastic_bottles": "yes",
        "recycling:plastic_packaging": "yes",
        "recycling_type": "container"
      },
      "geometry": {
        "type": "Point",
        "coordinates": [
          1.9631801,
          41.4532182
        ]
      },
      "id": "node/9824548397"
    },
    {
      "type": "Feature",
      "properties": {
        "@id": "node/10184581993",
        "amenity": "recycling",
        "recycling:cans": "yes",
        "recycling:plastic": "yes",
        "recycling:plastic_bottles": "yes",
        "recycling:plastic_packaging": "yes",
        "recycling_type": "container"
      },
      "geometry": {
        "type": "Point",
        "coordinates": [
          1.958519,
          41.4562812
        ]
      },
      "id": "node/10184581993"
    },
    {
      "type": "Feature",
      "properties": {
        "@id": "node/10719316510",
        "amenity": "recycling",
        "recycling:beverage_cartons": "yes",
        "recycling:plastic": "yes",
        "recycling:plastic_bottles": "yes",
        "recycling:plastic_packaging": "yes",
        "recycling_type": "container"
      },
      "geometry": {
        "type": "Point",
        "coordinates": [
          1.9771626,
          41.4466357
        ]
      },
      "id": "node/10719316510"
    },
    {
      "type": "Feature",
      "properties": {
        "@id": "node/10719316514",
        "amenity": "recycling",
        "recycling:beverage_cartons": "yes",
        "recycling:plastic": "yes",
        "recycling:plastic_bottles": "yes",
        "recycling:plastic_packaging": "yes",
        "recycling_type": "container"
      },
      "geometry": {
        "type": "Point",
        "coordinates": [
          1.9784933,
          41.4457915
        ]
      },
      "id": "node/10719316514"
    },
    {
      "type": "Feature",
      "properties": {
        "@id": "node/10719316524",
        "amenity": "recycling",
        "recycling:beverage_cartons": "yes",
        "recycling:plastic": "yes",
        "recycling:plastic_bottles": "yes",
        "recycling:plastic_packaging": "yes",
        "recycling_type": "container"
      },
      "geometry": {
        "type": "Point",
        "coordinates": [
          1.9794901,
          41.4455204
        ]
      },
      "id": "node/10719316524"
    },
    {
      "type": "Feature",
      "properties": {
        "@id": "node/10734536874",
        "amenity": "recycling",
        "recycling:plastic": "yes",
        "recycling:plastic_bottles": "yes",
        "recycling:plastic_packaging": "yes",
        "recycling_type": "container"
      },
      "geometry": {
        "type": "Point",
        "coordinates": [
          1.9738999,
          41.4450852
        ]
      },
      "id": "node/10734536874"
    },
    {
      "type": "Feature",
      "properties": {
        "@id": "node/10734536881",
        "amenity": "recycling",
        "recycling:plastic": "yes",
        "recycling:plastic_bottles": "yes",
        "recycling:plastic_packaging": "yes",
        "recycling_type": "container"
      },
      "geometry": {
        "type": "Point",
        "coordinates": [
          1.9732146,
          41.4453562
        ]
      },
      "id": "node/10734536881"
    },
    {
      "type": "Feature",
      "properties": {
        "@id": "node/11083027172",
        "amenity": "recycling",
        "recycling:cans": "yes",
        "recycling:plastic": "yes",
        "recycling:plastic_bottles": "yes",
        "recycling:plastic_packaging": "yes",
        "recycling_type": "container"
      },
      "geometry": {
        "type": "Point",
        "coordinates": [
          1.9552352,
          41.4503233
        ]
      },
      "id": "node/11083027172"
    },
    {
      "type": "Feature",
      "properties": {
        "@id": "node/11166012357",
        "amenity": "recycling",
        "recycling:beverage_cartons": "yes",
        "recycling:cans": "yes",
        "recycling:plastic": "yes",
        "recycling:plastic_bottles": "yes",
        "recycling:plastic_packaging": "yes",
        "recycling_type": "container"
      },
      "geometry": {
        "type": "Point",
        "coordinates": [
          1.9686162,
          41.4477686
        ]
      },
      "id": "node/11166012357"
    },
    {
      "type": "Feature",
      "properties": {
        "@id": "node/11166017225",
        "amenity": "recycling",
        "recycling:beverage_cartons": "yes",
        "recycling:cans": "yes",
        "recycling:plastic": "yes",
        "recycling:plastic_bottles": "yes",
        "recycling:plastic_packaging": "yes",
        "recycling_type": "container"
      },
      "geometry": {
        "type": "Point",
        "coordinates": [
          1.9671147,
          41.4465029
        ]
      },
      "id": "node/11166017225"
    },
    {
      "type": "Feature",
      "properties": {
        "@id": "node/11167088045",
        "amenity": "recycling",
        "recycling:beverage_cartons": "yes",
        "recycling:cans": "yes",
        "recycling:plastic": "yes",
        "recycling:plastic_bottles": "yes",
        "recycling:plastic_packaging": "yes",
        "recycling_type": "container"
      },
      "geometry": {
        "type": "Point",
        "coordinates": [
          1.9699828,
          41.4486742
        ]
      },
      "id": "node/11167088045"
    },
    {
      "type": "Feature",
      "properties": {
        "@id": "node/11168394535",
        "amenity": "recycling",
        "recycling:cans": "yes",
        "recycling:plastic": "yes",
        "recycling:plastic_bottles": "yes",
        "recycling:plastic_packaging": "yes",
        "recycling_type": "container"
      },
      "geometry": {
        "type": "Point",
        "coordinates": [
          1.9708462,
          41.4494408
        ]
      },
      "id": "node/11168394535"
    },
    {
      "type": "Feature",
      "properties": {
        "@id": "node/11168395638",
        "amenity": "recycling",
        "recycling:cans": "yes",
        "recycling:plastic": "yes",
        "recycling:plastic_bottles": "yes",
        "recycling:plastic_packaging": "yes",
        "recycling_type": "container"
      },
      "geometry": {
        "type": "Point",
        "coordinates": [
          1.9709169,
          41.4493867
        ]
      },
      "id": "node/11168395638"
    },
    {
      "type": "Feature",
      "properties": {
        "@id": "node/11168478971",
        "amenity": "recycling",
        "recycling:cans": "yes",
        "recycling:plastic": "yes",
        "recycling:plastic_bottles": "yes",
        "recycling:plastic_packaging": "yes",
        "recycling_type": "container"
      },
      "geometry": {
        "type": "Point",
        "coordinates": [
          1.9743487,
          41.4501549
        ]
      },
      "id": "node/11168478971"
    },
    {
      "type": "Feature",
      "properties": {
        "@id": "node/11170012502",
        "amenity": "recycling",
        "recycling:cans": "yes",
        "recycling:plastic": "yes",
        "recycling:plastic_bottles": "yes",
        "recycling:plastic_packaging": "yes",
        "recycling_type": "container"
      },
      "geometry": {
        "type": "Point",
        "coordinates": [
          1.9728262,
          41.4506735
        ]
      },
      "id": "node/11170012502"
    },
    {
      "type": "Feature",
      "properties": {
        "@id": "node/11184650912",
        "amenity": "recycling",
        "recycling:cans": "yes",
        "recycling:plastic": "yes",
        "recycling:plastic_bottles": "yes",
        "recycling:plastic_packaging": "yes",
        "recycling_type": "container"
      },
      "geometry": {
        "type": "Point",
        "coordinates": [
          1.9804541,
          41.4448247
        ]
      },
      "id": "node/11184650912"
    },
    {
      "type": "Feature",
      "properties": {
        "@id": "node/11194730000",
        "amenity": "recycling",
        "recycling:cans": "yes",
        "recycling:plastic": "yes",
        "recycling:plastic_bottles": "yes",
        "recycling:plastic_packaging": "yes",
        "recycling_type": "container"
      },
      "geometry": {
        "type": "Point",
        "coordinates": [
          1.9755612,
          41.4473533
        ]
      },
      "id": "node/11194730000"
    },
    {
      "type": "Feature",
      "properties": {
        "@id": "node/11211243107",
        "amenity": "recycling",
        "recycling:cans": "yes",
        "recycling:plastic": "yes",
        "recycling:plastic_bottles": "yes",
        "recycling:plastic_packaging": "yes",
        "recycling_type": "container"
      },
      "geometry": {
        "type": "Point",
        "coordinates": [
          1.9610918,
          41.4540212
        ]
      },
      "id": "node/11211243107"
    },
    {
      "type": "Feature",
      "properties": {
        "@id": "node/11214446249",
        "amenity": "recycling",
        "recycling:cans": "yes",
        "recycling:plastic": "yes",
        "recycling:plastic_bottles": "yes",
        "recycling:plastic_packaging": "yes",
        "recycling_type": "container"
      },
      "geometry": {
        "type": "Point",
        "coordinates": [
          1.9631968,
          41.4532116
        ]
      },
      "id": "node/11214446249"
    },
    {
      "type": "Feature",
      "properties": {
        "@id": "node/11218786098",
        "amenity": "recycling",
        "recycling:cans": "yes",
        "recycling:plastic": "yes",
        "recycling:plastic_bottles": "yes",
        "recycling:plastic_packaging": "yes",
        "recycling_type": "container"
      },
      "geometry": {
        "type": "Point",
        "coordinates": [
          1.9622202,
          41.4550425
        ]
      },
      "id": "node/11218786098"
    },
    {
      "type": "Feature",
      "properties": {
        "@id": "node/11225683910",
        "amenity": "recycling",
        "recycling:cans": "yes",
        "recycling:plastic": "yes",
        "recycling:plastic_bottles": "yes",
        "recycling_type": "container"
      },
      "geometry": {
        "type": "Point",
        "coordinates": [
          1.9583759,
          41.4549846
        ]
      },
      "id": "node/11225683910"
    },
    {
      "type": "Feature",
      "properties": {
        "@id": "node/11464343560",
        "amenity": "recycling",
        "recycling:cans": "yes",
        "recycling:plastic": "yes",
        "recycling_type": "container"
      },
      "geometry": {
        "type": "Point",
        "coordinates": [
          1.9647564,
          41.44792
        ]
      },
      "id": "node/11464343560"
    },
    {
      "type": "Feature",
      "properties": {
        "@id": "node/11756700572",
        "amenity": "recycling",
        "recycling:cans": "yes",
        "recycling:plastic": "yes",
        "recycling:plastic_bottles": "yes",
        "recycling:plastic_packaging": "yes",
        "recycling_type": "container"
      },
      "geometry": {
        "type": "Point",
        "coordinates": [
          1.9735285,
          41.4583618
        ]
      },
      "id": "node/11756700572"
    },
    {
      "type": "Feature",
      "properties": {
        "@id": "node/11777325921",
        "amenity": "recycling",
        "recycling:cans": "yes",
        "recycling:plastic": "yes",
        "recycling:plastic_bottles": "yes",
        "recycling_type": "container"
      },
      "geometry": {
        "type": "Point",
        "coordinates": [
          1.9593076,
          41.4552405
        ]
      },
      "id": "node/11777325921"
    },
    {
      "type": "Feature",
      "properties": {
        "@id": "node/11777327479",
        "amenity": "recycling",
        "recycling:cans": "yes",
        "recycling:plastic": "yes",
        "recycling:plastic_bottles": "yes",
        "recycling:plastic_packaging": "yes",
        "recycling_type": "container"
      },
      "geometry": {
        "type": "Point",
        "coordinates": [
          1.965276,
          41.4487393
        ]
      },
      "id": "node/11777327479"
    },
    {
      "type": "Feature",
      "properties": {
        "@id": "node/11863282684",
        "amenity": "recycling",
        "recycling:cans": "yes",
        "recycling:plastic": "yes",
        "recycling:plastic_bottles": "yes",
        "recycling:plastic_packaging": "yes",
        "recycling_type": "container"
      },
      "geometry": {
        "type": "Point",
        "coordinates": [
          1.956683,
          41.4553889
        ]
      },
      "id": "node/11863282684"
    },
    {
      "type": "Feature",
      "properties": {
        "@id": "node/12013053933",
        "amenity": "recycling",
        "recycling:cans": "yes",
        "recycling:plastic": "yes",
        "recycling_type": "container"
      },
      "geometry": {
        "type": "Point",
        "coordinates": [
          1.9720114,
          41.4488679
        ]
      },
      "id": "node/12013053933"
    },
    {
      "type": "Feature",
      "properties": {
        "@id": "node/12013288521",
        "amenity": "recycling",
        "recycling:cans": "yes",
        "recycling:plastic": "yes",
        "recycling:plastic_bottles": "yes",
        "recycling:plastic_packaging": "yes",
        "recycling_type": "container"
      },
      "geometry": {
        "type": "Point",
        "coordinates": [
          1.9574409,
          41.4483446
        ]
      },
      "id": "node/12013288521"
    },
    {
      "type": "Feature",
      "properties": {
        "@id": "node/12013288527",
        "amenity": "recycling",
        "recycling:plastic": "yes",
        "recycling_type": "container"
      },
      "geometry": {
        "type": "Point",
        "coordinates": [
          1.9609238,
          41.4488472
        ]
      },
      "id": "node/12013288527"
    },
    {
      "type": "Feature",
      "properties": {
        "@id": "node/12736384687",
        "amenity": "recycling",
        "recycling:cans": "yes",
        "recycling:plastic": "yes",
        "recycling:plastic_bottles": "yes",
        "recycling:plastic_packaging": "yes",
        "recycling_type": "container"
      },
      "geometry": {
        "type": "Point",
        "coordinates": [
          1.9706535,
          41.4481091
        ]
      },
      "id": "node/12736384687"
    },
    {
      "type": "Feature",
      "properties": {
        "@id": "node/12919068613",
        "amenity": "recycling",
        "recycling:cans": "yes",
        "recycling:plastic": "yes",
        "recycling:plastic_bottles": "yes",
        "recycling:plastic_packaging": "yes",
        "recycling_type": "container"
      },
      "geometry": {
        "type": "Point",
        "coordinates": [
          1.9580366,
          41.4509331
        ]
      },
      "id": "node/12919068613"
    },
    {
      "type": "Feature",
      "properties": {
        "@id": "node/12919068635",
        "amenity": "recycling",
        "recycling:cans": "yes",
        "recycling:plastic": "yes",
        "recycling:plastic_bottles": "yes",
        "recycling:plastic_packaging": "yes",
        "recycling_type": "container"
      },
      "geometry": {
        "type": "Point",
        "coordinates": [
          1.9668243,
          41.4494299
        ]
      },
      "id": "node/12919068635"
    },
    {
      "type": "Feature",
      "properties": {
        "@id": "node/12919097590",
        "amenity": "recycling",
        "recycling:cans": "yes",
        "recycling:plastic": "yes",
        "recycling:plastic_bottles": "yes",
        "recycling:plastic_packaging": "yes",
        "recycling_type": "container"
      },
      "geometry": {
        "type": "Point",
        "coordinates": [
          1.9676628,
          41.4490347
        ]
      },
      "id": "node/12919097590"
    },
    {
      "type": "Feature",
      "properties": {
        "@id": "node/12919110910",
        "amenity": "recycling",
        "recycling:cans": "yes",
        "recycling:plastic": "yes",
        "recycling:plastic_bottles": "yes",
        "recycling:plastic_packaging": "yes",
        "recycling_type": "container"
      },
      "geometry": {
        "type": "Point",
        "coordinates": [
          1.9656104,
          41.4515264
        ]
      },
      "id": "node/12919110910"
    },
    {
      "type": "Feature",
      "properties": {
        "@id": "node/12919132185",
        "amenity": "recycling",
        "recycling:cans": "yes",
        "recycling:plastic": "yes",
        "recycling:plastic_bottles": "yes",
        "recycling:plastic_packaging": "yes",
        "recycling_type": "container"
      },
      "geometry": {
        "type": "Point",
        "coordinates": [
          1.9779318,
          41.4468682
        ]
      },
      "id": "node/12919132185"
    },
    {
      "type": "Feature",
      "properties": {
        "@id": "node/12919134282",
        "amenity": "recycling",
        "recycling:cans": "yes",
        "recycling:plastic": "yes",
        "recycling:plastic_bottles": "yes",
        "recycling:plastic_packaging": "yes",
        "recycling_type": "container"
      },
      "geometry": {
        "type": "Point",
        "coordinates": [
          1.9773411,
          41.4458668
        ]
      },
      "id": "node/12919134282"
    },
    {
      "type": "Feature",
      "properties": {
        "@id": "node/12919134290",
        "amenity": "recycling",
        "recycling:cans": "yes",
        "recycling:plastic": "yes",
        "recycling:plastic_bottles": "yes",
        "recycling:plastic_packaging": "yes",
        "recycling_type": "container"
      },
      "geometry": {
        "type": "Point",
        "coordinates": [
          1.9786158,
          41.4451671
        ]
      },
      "id": "node/12919134290"
    },
    {
      "type": "Feature",
      "properties": {
        "@id": "node/12919137336",
        "amenity": "recycling",
        "recycling:cans": "yes",
        "recycling:plastic": "yes",
        "recycling:plastic_bottles": "yes",
        "recycling:plastic_packaging": "yes",
        "recycling_type": "container"
      },
      "geometry": {
        "type": "Point",
        "coordinates": [
          1.9799584,
          41.4444575
        ]
      },
      "id": "node/12919137336"
    },
    {
      "type": "Feature",
      "properties": {
        "@id": "node/13048229147",
        "amenity": "recycling",
        "recycling:cans": "yes",
        "recycling:plastic": "yes",
        "recycling:plastic_packaging": "yes",
        "recycling_type": "container"
      },
      "geometry": {
        "type": "Point",
        "coordinates": [
          1.9724356,
          41.4505589
        ]
      },
      "id": "node/13048229147"
    },
    {
      "type": "Feature",
      "properties": {
        "@id": "node/13360578869",
        "amenity": "recycling",
        "recycling:cans": "yes",
        "recycling:plastic": "yes",
        "recycling:plastic_bottles": "yes",
        "recycling:plastic_packaging": "yes",
        "recycling_type": "container"
      },
      "geometry": {
        "type": "Point",
        "coordinates": [
          1.9723073,
          41.4471755
        ]
      },
      "id": "node/13360578869"
    },
    {
      "type": "Feature",
      "properties": {
        "@id": "node/13361600319",
        "amenity": "recycling",
        "recycling:cans": "yes",
        "recycling:plastic": "yes",
        "recycling:plastic_bottles": "yes",
        "recycling:plastic_packaging": "yes",
        "recycling_type": "container"
      },
      "geometry": {
        "type": "Point",
        "coordinates": [
          1.9713923,
          41.4472663
        ]
      },
      "id": "node/13361600319"
    },
    {
      "type": "Feature",
      "properties": {
        "@id": "node/13362646735",
        "amenity": "recycling",
        "recycling:cans": "yes",
        "recycling:plastic": "yes",
        "recycling:plastic_bottles": "yes",
        "recycling:plastic_packaging": "yes",
        "recycling_type": "container"
      },
      "geometry": {
        "type": "Point",
        "coordinates": [
          1.9741967,
          41.448129
        ]
      },
      "id": "node/13362646735"
    },
    {
      "type": "Feature",
      "properties": {
        "@id": "node/13689698465",
        "amenity": "recycling",
        "recycling:cans": "yes",
        "recycling:plastic": "yes",
        "recycling:plastic_bottles": "yes",
        "recycling:plastic_packaging": "yes",
        "recycling_type": "container"
      },
      "geometry": {
        "type": "Point",
        "coordinates": [
          1.9681492,
          41.4441113
        ]
      },
      "id": "node/13689698465"
    },
    {
      "type": "Feature",
      "properties": {
        "@id": "node/13689747194",
        "amenity": "recycling",
        "recycling:plastic": "yes",
        "recycling:plastic_bottles": "yes",
        "recycling:plastic_packaging": "yes",
        "recycling_type": "container"
      },
      "geometry": {
        "type": "Point",
        "coordinates": [
          1.9744887,
          41.4448123
        ]
      },
      "id": "node/13689747194"
    },
    {
      "type": "Feature",
      "properties": {
        "@id": "node/13689775602",
        "amenity": "recycling",
        "recycling:plastic": "yes",
        "recycling:plastic_bottles": "yes",
        "recycling:plastic_packaging": "yes",
        "recycling_type": "container"
      },
      "geometry": {
        "type": "Point",
        "coordinates": [
          1.9783955,
          41.4436217
        ]
      },
      "id": "node/13689775602"
    },
    {
      "type": "Feature",
      "properties": {
        "@id": "node/13694973303",
        "amenity": "recycling",
        "recycling:cans": "yes",
        "recycling:plastic": "yes",
        "recycling:plastic_bottles": "yes",
        "recycling:plastic_packaging": "yes",
        "recycling_type": "container"
      },
      "geometry": {
        "type": "Point",
        "coordinates": [
          1.9572533,
          41.4551924
        ]
      },
      "id": "node/13694973303"
    },
    {
      "type": "Feature",
      "properties": {
        "@id": "node/13694997512",
        "amenity": "recycling",
        "recycling:cans": "yes",
        "recycling:plastic": "yes",
        "recycling:plastic_bottles": "yes",
        "recycling:plastic_packaging": "yes",
        "recycling_type": "container"
      },
      "geometry": {
        "type": "Point",
        "coordinates": [
          1.9629095,
          41.4523324
        ]
      },
      "id": "node/13694997512"
    },
    {
      "type": "Feature",
      "properties": {
        "@id": "node/13759778683",
        "amenity": "recycling",
        "recycling:cans": "yes",
        "recycling:plastic": "yes",
        "recycling:plastic_bottles": "yes",
        "recycling:plastic_packaging": "yes",
        "recycling_type": "container"
      },
      "geometry": {
        "type": "Point",
        "coordinates": [
          1.9691345,
          41.447027
        ]
      },
      "id": "node/13759778683"
    },
    {
      "type": "Feature",
      "properties": {
        "@id": "node/13759874857",
        "amenity": "recycling",
        "recycling:plastic": "yes",
        "recycling:plastic_bottles": "yes",
        "recycling_type": "container"
      },
      "geometry": {
        "type": "Point",
        "coordinates": [
          1.9734069,
          41.446597
        ]
      },
      "id": "node/13759874857"
    },
    {
      "type": "Feature",
      "properties": {
        "@id": "node/13798243507",
        "amenity": "recycling",
        "recycling:cans": "yes",
        "recycling:plastic": "yes",
        "recycling:plastic_bottles": "yes",
        "recycling:plastic_packaging": "yes",
        "recycling_type": "container"
      },
      "geometry": {
        "type": "Point",
        "coordinates": [
          1.9688448,
          41.450289
        ]
      },
      "id": "node/13798243507"
    }
  ]
}